0 COSMOS 1275 DEB
1 13455U 81053FB  13281.67969448  .00010281  00000-0  25549-2 0  1589
2 13455 082.8676 233.0049 0012191 139.0868 276.1691 14.51669451632631
0 COSMOS 1275 DEB
1 13455U 81053FB  13282.85190632  .00011992  00000-0  29776-2 0  1598
2 13455 082.8671 232.0095 0012426 134.9693 282.6460 14.51708851632800
0 COSMOS 1275 DEB
1 13455U 81053FB  13284.10602788  .00013684  00000-0  33956-2 0  1605
2 13455 082.8668 230.9440 0012677 130.8987 357.0420 14.51730622632989
0 COSMOS 1275 DEB
1 13455U 81053FB  13285.35371853  .00010425  00000-0  25856-2 0  1610
2 13455 082.8667 229.8839 0012871 126.8078 037.9631 14.51755931633168
0 COSMOS 1275 DEB
1 13455U 81053FB  13286.84403241  .00011661  00000-0  28902-2 0  1621
2 13455 082.8669 228.6178 0013038 122.8329 266.1822 14.51788180633388
0 COSMOS 1275 DEB
1 13455U 81053FB  13288.16018670  .00021029  00000-0  52040-2 0  1636
2 13455 082.8670 227.4995 0013286 118.8588 304.8782 14.51824688633571
0 COSMOS 1275 DEB
1 13455U 81053FB  13289.28159310  .00016252  00000-0  40208-2 0  1643
2 13455 082.8674 226.5464 0013451 115.5871 045.7900 14.51856933633738
0 COSMOS 1275 DEB
1 13455U 81053FB  13290.63973361  .00016899  00000-0  41778-2 0  1655
2 13455 082.8677 225.3923 0013750 111.1935 304.5475 14.51888869633931
0 COSMOS 1275 DEB
1 13455U 81053FB  13291.96103333  .00012642  00000-0  31236-2 0  1667
2 13455 082.8679 224.2693 0014013 107.2651 010.5698 14.51926495634120
0 COSMOS 1275 DEB
1 13455U 81053FB  13292.99639773  .00014301  00000-0  35310-2 0  1675
2 13455 082.8680 223.3893 0014009 104.7575 021.6508 14.51953484634273
0 COSMOS 1275 DEB
1 13455U 81053FB  13294.30567297  .00016458  00000-0  40602-2 0  1689
2 13455 082.8677 222.2768 0014309 100.8764 025.1041 14.51983863634464
0 COSMOS 1275 DEB
1 13455U 81053FB  13295.34338348  .00017472  00000-0  43075-2 0  1692
2 13455 082.8675 221.3950 0014442 098.0130 049.0097 14.52010171634615
